GCOM-W1 (SHIZUKU)       
1 38337U 12025A   24318.44151130  .00002109  00000+0  47802-3 0  9996
2 38337  98.2178 256.2981 0002018  63.9336  48.1382 14.57102012664459
GCOM-W1 (SHIZUKU)       
1 38337U 12025A   24318.59046186  .00001950  00000+0  44294-3 0  9991
2 38337  98.2177 256.4451 0002013  63.7807 109.1585 14.57102067664484
GCOM-W1 (SHIZUKU)       
1 38337U 12025A   24318.84380807  .00001915  00000+0  43503-3 0  9993
2 38337  98.2178 256.6950 0002017  63.5789 357.5196 14.57103067664525
GCOM-W1 (SHIZUKU)       
1 38337U 12025A   24319.47240944  .00001854  00000+0  42143-3 0  9991
2 38337  98.2180 257.3152 0002009  62.7910  53.7316 14.57105139664608
GCOM-W1 (SHIZUKU)       
1 38337U 12025A   24319.47240944  .00001854  00000+0  42143-3 0  9991
2 38337  98.2180 257.3152 0002009  62.7910  53.7316 14.57105139664619
GCOM-W1 (SHIZUKU)       
1 38337U 12025A   24320.58190775  .00001832  00000+0  41656-3 0  9995
2 38337  98.2184 258.4099 0001960  60.6002 112.4486 14.57108885664767
GCOM-W1 (SHIZUKU)       
1 38337U 12025A   24320.58190775  .00001832  00000+0  41656-3 0  9995
2 38337  98.2184 258.4099 0001960  60.6002 112.4486 14.57108885664778
GCOM-W1 (SHIZUKU)       
1 38337U 12025A   24321.10029119  .00001801  00000+0  40972-3 0  9993
2 38337  98.2185 258.9214 0001950  60.0165 310.6562 14.57110964664853
GCOM-W1 (SHIZUKU)       
1 38337U 12025A   24321.79659236  .00001472  00000+0  33682-3 0  9991
2 38337  98.2185 259.6084 0001941  59.4260   1.6016 14.57111590664941
GCOM-W1 (SHIZUKU)       
1 38337U 12025A   24322.89155238  .00001338  00000+0  30694-3 0  9997
2 38337  98.2187 260.6888 0001919  58.3875 342.9731 14.57114309665118
GCOM-W1 (SHIZUKU)       
1 38337U 12025A   24323.09154444  .00001332  00000+0  30555-3 0  9998
2 38337  98.2188 260.8861 0001915  58.2551 311.5663 14.57114874665133
GCOM-W1 (SHIZUKU)       
1 38337U 12025A   24323.60450352  .00001306  00000+0  29984-3 0  9997
2 38337  98.2189 261.3922 0001895  57.5627 121.4541 14.57116241665213
GCOM-W1 (SHIZUKU)       
1 38337U 12025A   24323.85745146  .00001302  00000+0  29898-3 0  9992
2 38337  98.2189 261.6418 0001892  57.3333   7.7680 14.57116984665253
GCOM-W1 (SHIZUKU)       
1 38337U 12025A   24324.12181657  .00001293  00000+0  29697-3 0  9990
2 38337  98.2190 261.9027 0001884  57.0278 314.0131 14.57117687665289
GCOM-W1 (SHIZUKU)       
1 38337U 12025A   24324.42247685  .00001352  00000+0  31003-3 0  9997
2 38337  98.2190 262.1993 0001875  56.6977  90.5629 14.57118919665338
GCOM-W1 (SHIZUKU)       
1 38337U 12025A   24324.88202970  .00001542  00000+0  35216-3 0  9996
2 38337  98.2191 262.6528 0001858  56.1609 340.3214 14.57121421665402
GCOM-W1 (SHIZUKU)       
1 38337U 12025A   24325.31782632  .00001372  00000+0  31438-3 0  9996
2 38337  98.2192 263.0828 0001849  55.8543 105.3054 14.57121711665452
GCOM-W1 (SHIZUKU)       
1 38337U 12025A   24325.31782632  .00001372  00000+0  31438-3 0  9996
2 38337  98.2192 263.0828 0001849  55.8543 105.3054 14.57121711665463
GCOM-W1 (SHIZUKU)       
1 38337U 12025A   24325.91358589  .00001468  00000+0  33570-3 0  9997
2 38337  98.2193 263.6707 0001824  55.2892 349.1652 14.57124016665553
GCOM-W1 (SHIZUKU)       
1 38337U 12025A   24326.41397809  .00001443  00000+0  33021-3 0  9995
2 38337  98.2194 264.1645 0001796  54.6686  93.1147 14.57125340665616
GCOM-W1 (SHIZUKU)       
1 38337U 12025A   24326.41397809  .00001443  00000+0  33021-3 0  9995
2 38337  98.2194 264.1645 0001796  54.6686  93.1147 14.57125340665627
GCOM-W1 (SHIZUKU)       
1 38337U 12025A   24327.37700122  .00001752  00000+0  39860-3 0  9997
2 38337  98.2194 265.1148 0001749  53.5064 102.9820 14.57130051665769
GCOM-W1 (SHIZUKU)       
1 38337U 12025A   24327.43755663  .00001651  00000+0  37621-3 0  9995
2 38337  98.2195 265.1745 0001747  53.5147  60.4375 14.57129592665764
GCOM-W1 (SHIZUKU)       
1 38337U 12025A   24327.90426976  .00001865  00000+0  42367-3 0  9999
2 38337  98.2195 265.6351 0001729  53.0031 347.7254 14.57132318665845
GCOM-W1 (SHIZUKU)       
1 38337U 12025A   24328.40544472  .00001816  00000+0  41295-3 0  9992
2 38337  98.2196 266.1297 0001701  52.4298  95.7452 14.57133725665910
GCOM-W1 (SHIZUKU)       
1 38337U 12025A   24328.86400933  .00001771  00000+0  40296-3 0  9995
2 38337  98.2196 266.5822 0001702  52.1815 340.0538 14.57134961665971
GCOM-W1 (SHIZUKU)       
1 38337U 12025A   24328.86400933  .00001771  00000+0  40296-3 0  9995
2 38337  98.2196 266.5822 0001702  52.1815 340.0538 14.57134961665982
GCOM-W1 (SHIZUKU)       
1 38337U 12025A   24329.36840576  .00001773  00000+0  40318-3 0  9999
2 38337  98.2197 267.0800 0001687  52.0341 104.5446 14.57136824666050
GCOM-W1 (SHIZUKU)       
1 38337U 12025A   24329.89572682  .00001856  00000+0  42172-3 0  9999
2 38337  98.2197 267.6004 0001643  51.3867 349.7226 14.57139185666129
GCOM-W1 (SHIZUKU)       
1 38337U 12025A   24329.89572682  .00001856  00000+0  42172-3 0  9999
2 38337  98.2197 267.6004 0001643  51.3867 349.7226 14.57139185666130
GCOM-W1 (SHIZUKU)       
1 38337U 12025A   24330.45912205  .00001982  00000+0  44951-3 0  9999
2 38337  98.2197 268.1564 0001649  50.9032  63.8663 14.57142142666217
GCOM-W1 (SHIZUKU)       
1 38337U 12025A   24330.85501242  .00002117  00000+0  47936-3 0  9995
2 38337  98.2197 268.5471 0001643  50.7826 339.4876 14.57144482666274
GCOM-W1 (SHIZUKU)       
1 38337U 12025A   24331.42614831  .00002230  00000+0  50450-3 0  9999
2 38337  98.2194 269.1108 0001634  51.3838  93.1334 14.57146962666341
GCOM-W1 (SHIZUKU)       
1 38337U 12025A   24331.88615032  .00002165  00000+0  49017-3 0  9997
2 38337  98.2195 269.5647 0001600  50.6376 345.5005 14.57148921666421
GCOM-W1 (SHIZUKU)       
1 38337U 12025A   24332.32207976  .00002411  00000+0  54465-3 0  9998
2 38337  98.2196 269.9949 0001589  50.3177 111.2407 14.57151684666483
GCOM-W1 (SHIZUKU)       
1 38337U 12025A   24332.77595322  .00002494  00000+0  56415-3 0  9990
2 38337  98.2197 270.4428 0001539  66.9864 313.8381 14.57056378666546
GCOM-W1 (SHIZUKU)       
1 38337U 12025A   24332.91734552  .00002215  00000+0  50222-3 0  9997
2 38337  98.2203 270.5820 0001557  65.7914 336.2535 14.57056005666574
GCOM-W1 (SHIZUKU)       
1 38337U 12025A   24333.48435160  .00003027  00000+0  68248-3 0  9992
2 38337  98.2204 271.1416 0001530  66.0293  68.4363 14.57060693666658
GCOM-W1 (SHIZUKU)       
1 38337U 12025A   24333.87964112  .00002754  00000+0  62165-3 0  9997
2 38337  98.2206 271.5316 0001530  66.8105 339.8887 14.57062052666717
GCOM-W1 (SHIZUKU)       
1 38337U 12025A   24334.16704546  .00002747  00000+0  62020-3 0  9995
2 38337  98.2205 271.8152 0001509  66.8428  46.5229 14.57063537666745
GCOM-W1 (SHIZUKU)       
1 38337U 12025A   24334.59043181  .00002787  00000+0  62903-3 0  9997
2 38337  98.2204 272.2330 0001486  66.4631 106.4332 14.57065841666812
GCOM-W1 (SHIZUKU)       
1 38337U 12025A   24334.90855042  .00002715  00000+0  61303-3 0  9993
2 38337  98.2206 272.5469 0001489  66.3823 334.1991 14.57067395666867
GCOM-W1 (SHIZUKU)       
1 38337U 12025A   24335.46280248  .00002539  00000+0  57398-3 0  9998
2 38337  98.2204 273.0940 0001472  66.0604   0.1000 14.57069808666931
GCOM-W1 (SHIZUKU)       
1 38337U 12025A   24335.62049704  .00002230  00000+0  50533-3 0  9998
2 38337  98.2205 273.2496 0001461  66.1210 106.7279 14.57069482666964
GCOM-W1 (SHIZUKU)       
1 38337U 12025A   24335.93883587  .00002185  00000+0  49534-3 0  9995
2 38337  98.2206 273.5637 0001455  65.9964 335.6971 14.57070929667018
GCOM-W1 (SHIZUKU)       
1 38337U 12025A   24336.50537823  .00002420  00000+0  54752-3 0  9998
2 38337  98.2208 274.1229 0001431  66.2604  65.4534 14.57074429667093
GCOM-W1 (SHIZUKU)       
1 38337U 12025A   24336.76141227  .00002354  00000+0  53268-3 0  9992
2 38337  98.2208 274.3755 0001438  66.1031 327.8349 14.57075480667120
GCOM-W1 (SHIZUKU)       
1 38337U 12025A   24336.90008569  .00002158  00000+0  48921-3 0  9991
2 38337  98.2209 274.5124 0001437  66.2548 334.6601 14.57075548667151
GCOM-W1 (SHIZUKU)       
1 38337U 12025A   24337.61196150  .00002078  00000+0  47147-3 0  9994
2 38337  98.2211 275.2149 0001450  66.1447 106.6929 14.57078664667254
GCOM-W1 (SHIZUKU)       
1 38337U 12025A   24337.86493223  .00002055  00000+0  46632-3 0  9995
2 38337  98.2211 275.4646 0001442  66.2502 352.7579 14.57079874667295
GCOM-W1 (SHIZUKU)       
1 38337U 12025A   24337.93031462  .00002049  00000+0  46499-3 0  9990
2 38337  98.2212 275.5291 0001436  66.2993 335.4687 14.57080157667294
GCOM-W1 (SHIZUKU)       
1 38337U 12025A   24338.49607644  .00001991  00000+0  45204-3 0  9991
2 38337  98.2213 276.0875 0001425  66.1151  61.5989 14.57082586667382
GCOM-W1 (SHIZUKU)       
1 38337U 12025A   24338.82535694  .00001954  00000+0  44381-3 0  9997
2 38337  98.2214 276.4125 0001407  65.7895 348.1446 14.57083969667439
GCOM-W1 (SHIZUKU)       
1 38337U 12025A   24338.96039773  .00002102  00000+0  47780-3 0  9991
2 38337  98.2211 276.5451 0002374  98.5759 303.2374 14.56982732667444
GCOM-W1 (SHIZUKU)       
1 38337U 12025A   24339.60463657  .00001922  00000+0  43768-3 0  9996
2 38337  98.2218 277.1808 0001803  75.8654 103.0596 14.56983703667544
GCOM-W1 (SHIZUKU)       
1 38337U 12025A   24339.85768633  .00000925  00000+0  21591-3 0  9997
2 38337  98.2215 277.4308 0001678  75.5249 349.8990 14.56984234667588
GCOM-W1 (SHIZUKU)       
1 38337U 12025A   24340.34752781  .00000282  00000+0  72860-4 0  9992
2 38337  98.2212 277.9143 0001674  76.2048  36.9889 14.56984322667644
GCOM-W1 (SHIZUKU)       
1 38337U 12025A   24340.34752781  .00000282  00000+0  72860-4 0  9992
2 38337  98.2212 277.9143 0001674  76.2048  36.9889 14.56984322667655
GCOM-W1 (SHIZUKU)       
1 38337U 12025A   24340.88384289  .00000248  00000+0  65350-4 0  9993
2 38337  98.2212 278.4445 0001743  76.1782 328.4153 14.56987612667734
GCOM-W1 (SHIZUKU)       
1 38337U 12025A   24341.59507541  .00000251  00000+0  66022-4 0  9991
2 38337  98.2226 279.1461 0001771  76.6498  96.2713 14.56990047667823
